[{"OBJECT_NAME":"BIRKELAND","OBJECT_ID":"2023-001G","EPOCH":"2026-03-09T22:29:53.413728","MEAN_MOTION":15.38193984,"ECCENTRICITY":0.00086916,"INCLINATION":97.3442,"RA_OF_ASC_NODE":136.7431,"ARG_OF_PERICENTER":103.0889,"MEAN_ANOMALY":257.1326,"EPHEMERIS_TYPE":0,"CLASSIFICATION_TYPE":"U","NORAD_CAT_ID":55015,"ELEMENT_SET_NO":999,"REV_AT_EPOCH":17708,"BSTAR":0.00029912141,"MEAN_MOTION_DOT":0.00011186,"MEAN_MOTION_DDOT":0},{"OBJECT_NAME":"KUIPER-00032","OBJECT_ID":"2025-088X","EPOCH":"2026-03-09T03:33:31.870656","MEAN_MOTION":15.37319113,"ECCENTRICITY":0.00053922,"INCLINATION":51.8716,"RA_OF_ASC_NODE":26.8422,"ARG_OF_PERICENTER":109.6944,"MEAN_ANOMALY":250.4625,"EPHEMERIS_TYPE":0,"CLASSIFICATION_TYPE":"U","NORAD_CAT_ID":63745,"ELEMENT_SET_NO":999,"REV_AT_EPOCH":4946,"BSTAR":0.00060942343,"MEAN_MOTION_DOT":0.00022318,"MEAN_MOTION_DDOT":0}]
